GLOBALSTAR M075         
1 37192U 10054E   25298.28738582 -.00000092  00000+0  65496-4 0  9996
2 37192  51.9923 145.4108 0000915  84.6479  87.0166 12.62269307692271
GLOBALSTAR M073         
1 37193U 10054F   25298.50461594 -.00000112  00000+0 -43864-4 0  9997
2 37193  52.0071  58.6662 0000630 125.9040 312.2484 12.62263635694293
GLOBALSTAR M083         
1 37739U 11033A   25298.50326880 -.00000087  00000+0  94927-4 0  9995
2 37739  51.9884   7.2225 0000478 132.8435 240.9138 12.62263860663311
GLOBALSTAR M088         
1 37740U 11033B   25298.43196200 -.00000092  00000+0  66661-4 0  9990
2 37740  52.0211 273.3002 0000582  62.3331 105.8460 12.62269176658841
GLOBALSTAR M091         
1 37741U 11033C   25298.28387307 -.00000072  00000+0  17676-3 0  9993
2 37741  51.9991 237.0621 0000736  77.5311  77.8523 12.62260909659615
GLOBALSTAR M085         
1 37742U 11033D   25298.43245182 -.00000063  00000+0  22731-3 0  9993
2 37742  52.0114 187.6978 0000941  88.1409  82.7589 12.62266204660145
GLOBALSTAR M081         
1 37743U 11033E   25298.45899308 -.00000066  00000+0  21178-3 0  9998
2 37743  51.9948 190.3203 0000720  82.5714  88.7971 12.62269641660298
GLOBALSTAR M089         
1 37744U 11033F   25298.08975833 -.00000087  00000+0  95553-4 0  9998
2 37744  51.9909 145.6474 0000795  70.0727  43.4240 12.62272151661093
